1U
1 44885U 19093G   25071.89662337  .00013778  00000-0  12071-2 0  9999
2 44885  97.8175 159.4112 0011643 142.4687 217.7349 14.96742709283474

2U
1 43768U 18099L   25072.37819404  .00013316  00000-0  84909-3 0  9994
2 43768  97.4952 125.6898 0006824  92.7885 267.4125 15.08816940342631

3U
1 55012U 23001D   25072.71198412  .00019204  00000-0  63490-3 0  9999
2 55012  97.3905 135.9811 0007266 321.1978  38.8740 15.31377123121690